<?xml version="1.0" encoding="UTF-8"?>
<ndm xmlns:xsi="http://www.w3.org/2001/XMLSchema-instance" xsi:noNamespaceSchemaLocation="https://sanaregistry.org/r/ndmxml_unqualified/ndmxml-2.0.0-master-2.0.xsd">
<omm id="CCSDS_OMM_VERS" version="2.0">
<header><CREATION_DATE/><ORIGINATOR/></header><body><segment><metadata><OBJECT_NAME>GLOBALSTAR M045 [-]</OBJECT_NAME><OBJECT_ID>1999-019A</OBJECT_ID><CENTER_NAME>EARTH</CENTER_NAME><REF_FRAME>TEME</REF_FRAME><TIME_SYSTEM>UTC</TIME_SYSTEM><MEAN_ELEMENT_THEORY>SGP4</MEAN_ELEMENT_THEORY></metadata><data><meanElements><EPOCH>2024-04-13T10:25:34.205952</EPOCH><MEAN_MOTION>12.27034600</MEAN_MOTION><ECCENTRICITY>.000063</ECCENTRICITY><INCLINATION>51.9958</INCLINATION><RA_OF_ASC_NODE>90.1243</RA_OF_ASC_NODE><ARG_OF_PERICENTER>88.3149</ARG_OF_PERICENTER><MEAN_ANOMALY>78.2357</MEAN_ANOMALY></meanElements><tleParameters><EPHEMERIS_TYPE>0</EPHEMERIS_TYPE><CLASSIFICATION_TYPE>U</CLASSIFICATION_TYPE><NORAD_CAT_ID>25676</NORAD_CAT_ID><ELEMENT_SET_NO>999</ELEMENT_SET_NO><REV_AT_EPOCH>14063</REV_AT_EPOCH><BSTAR>.28498E-4</BSTAR><MEAN_MOTION_DOT>-.9E-6</MEAN_MOTION_DOT><MEAN_MOTION_DDOT>0</MEAN_MOTION_DDOT></tleParameters></data></segment></body></omm>
<omm id="CCSDS_OMM_VERS" version="2.0">
<header><CREATION_DATE/><ORIGINATOR/></header><body><segment><metadata><OBJECT_NAME>GLOBALSTAR M019 [-]</OBJECT_NAME><OBJECT_ID>1999-019B</OBJECT_ID><CENTER_NAME>EARTH</CENTER_NAME><REF_FRAME>TEME</REF_FRAME><TIME_SYSTEM>UTC</TIME_SYSTEM><MEAN_ELEMENT_THEORY>SGP4</MEAN_ELEMENT_THEORY></metadata><data><meanElements><EPOCH>2024-04-13T12:37:54.054048</EPOCH><MEAN_MOTION>12.13855031</MEAN_MOTION><ECCENTRICITY>.0001524</ECCENTRICITY><INCLINATION>51.9869</INCLINATION><RA_OF_ASC_NODE>190.0032</RA_OF_ASC_NODE><ARG_OF_PERICENTER>161.4509</ARG_OF_PERICENTER><MEAN_ANOMALY>305.0482</MEAN_ANOMALY></meanElements><tleParameters><EPHEMERIS_TYPE>0</EPHEMERIS_TYPE><CLASSIFICATION_TYPE>U</CLASSIFICATION_TYPE><NORAD_CAT_ID>25677</NORAD_CAT_ID><ELEMENT_SET_NO>999</ELEMENT_SET_NO><REV_AT_EPOCH>13296</REV_AT_EPOCH><BSTAR>-.52351E-3</BSTAR><MEAN_MOTION_DOT>-.14E-5</MEAN_MOTION_DOT><MEAN_MOTION_DDOT>0</MEAN_MOTION_DDOT></tleParameters></data></segment></body></omm>
<omm id="CCSDS_OMM_VERS" version="2.0">
<header><CREATION_DATE/><ORIGINATOR/></header><body><segment><metadata><OBJECT_NAME>GLOBALSTAR M044 [-]</OBJECT_NAME><OBJECT_ID>1999-019C</OBJECT_ID><CENTER_NAME>EARTH</CENTER_NAME><REF_FRAME>TEME</REF_FRAME><TIME_SYSTEM>UTC</TIME_SYSTEM><MEAN_ELEMENT_THEORY>SGP4</MEAN_ELEMENT_THEORY></metadata><data><meanElements><EPOCH>2024-04-13T09:39:38.793312</EPOCH><MEAN_MOTION>11.90230621</MEAN_MOTION><ECCENTRICITY>.000616</ECCENTRICITY><INCLINATION>51.9955</INCLINATION><RA_OF_ASC_NODE>87.9367</RA_OF_ASC_NODE><ARG_OF_PERICENTER>292.4065</ARG_OF_PERICENTER><MEAN_ANOMALY>235.4624</MEAN_ANOMALY></meanElements><tleParameters><EPHEMERIS_TYPE>0</EPHEMERIS_TYPE><CLASSIFICATION_TYPE>U</CLASSIFICATION_TYPE><NORAD_CAT_ID>25678</NORAD_CAT_ID><ELEMENT_SET_NO>999</ELEMENT_SET_NO><REV_AT_EPOCH>12014</REV_AT_EPOCH><BSTAR>-.11153E-4</BSTAR><MEAN_MOTION_DOT>-.84E-6</MEAN_MOTION_DOT><MEAN_MOTION_DDOT>0</MEAN_MOTION_DDOT></tleParameters></data></segment></body></omm>
<omm id="CCSDS_OMM_VERS" version="2.0">
<header><CREATION_DATE/><ORIGINATOR/></header><body><segment><metadata><OBJECT_NAME>GLOBALSTAR M042 [-]</OBJECT_NAME><OBJECT_ID>1999-019D</OBJECT_ID><CENTER_NAME>EARTH</CENTER_NAME><REF_FRAME>TEME</REF_FRAME><TIME_SYSTEM>UTC</TIME_SYSTEM><MEAN_ELEMENT_THEORY>SGP4</MEAN_ELEMENT_THEORY></metadata><data><meanElements><EPOCH>2024-04-13T12:16:52.011840</EPOCH><MEAN_MOTION>12.22059478</MEAN_MOTION><ECCENTRICITY>.0003448</ECCENTRICITY><INCLINATION>52.0001</INCLINATION><RA_OF_ASC_NODE>183.9145</RA_OF_ASC_NODE><ARG_OF_PERICENTER>133.8844</ARG_OF_PERICENTER><MEAN_ANOMALY>332.4284</MEAN_ANOMALY></meanElements><tleParameters><EPHEMERIS_TYPE>0</EPHEMERIS_TYPE><CLASSIFICATION_TYPE>U</CLASSIFICATION_TYPE><NORAD_CAT_ID>25679</NORAD_CAT_ID><ELEMENT_SET_NO>999</ELEMENT_SET_NO><REV_AT_EPOCH>13272</REV_AT_EPOCH><BSTAR>.243E-3</BSTAR><MEAN_MOTION_DOT>-.66E-6</MEAN_MOTION_DOT><MEAN_MOTION_DDOT>0</MEAN_MOTION_DDOT></tleParameters></data></segment></body></omm>
<omm id="CCSDS_OMM_VERS" version="2.0">
<header><CREATION_DATE/><ORIGINATOR/></header><body><segment><metadata><OBJECT_NAME>GLOBALSTAR M025 [-]</OBJECT_NAME><OBJECT_ID>1999-031A</OBJECT_ID><CENTER_NAME>EARTH</CENTER_NAME><REF_FRAME>TEME</REF_FRAME><TIME_SYSTEM>UTC</TIME_SYSTEM><MEAN_ELEMENT_THEORY>SGP4</MEAN_ELEMENT_THEORY></metadata><data><meanElements><EPOCH>2024-04-13T07:51:16.193664</EPOCH><MEAN_MOTION>11.22550070</MEAN_MOTION><ECCENTRICITY>.0001354</ECCENTRICITY><INCLINATION>51.9809</INCLINATION><RA_OF_ASC_NODE>75.0619</RA_OF_ASC_NODE><ARG_OF_PERICENTER>144.3228</ARG_OF_PERICENTER><MEAN_ANOMALY>5.4066</MEAN_ANOMALY></meanElements><tleParameters><EPHEMERIS_TYPE>0</EPHEMERIS_TYPE><CLASSIFICATION_TYPE>U</CLASSIFICATION_TYPE><NORAD_CAT_ID>25770</NORAD_CAT_ID><ELEMENT_SET_NO>999</ELEMENT_SET_NO><REV_AT_EPOCH>43343</REV_AT_EPOCH><BSTAR>-.17167E-3</BSTAR><MEAN_MOTION_DOT>-.73E-6</MEAN_MOTION_DOT><MEAN_MOTION_DDOT>0</MEAN_MOTION_DDOT></tleParameters></data></segment></body></omm>
<omm id="CCSDS_OMM_VERS" version="2.0">
<header><CREATION_DATE/><ORIGINATOR/></header><body><segment><metadata><OBJECT_NAME>GLOBALSTAR M049 [-]</OBJECT_NAME><OBJECT_ID>1999-031B</OBJECT_ID><CENTER_NAME>EARTH</CENTER_NAME><REF_FRAME>TEME</REF_FRAME><TIME_SYSTEM>UTC</TIME_SYSTEM><MEAN_ELEMENT_THEORY>SGP4</MEAN_ELEMENT_THEORY></metadata><data><meanElements><EPOCH>2024-04-13T04:09:24.651936</EPOCH><MEAN_MOTION>11.12104087</MEAN_MOTION><ECCENTRICITY>.0002927</ECCENTRICITY><INCLINATION>51.9856</INCLINATION><RA_OF_ASC_NODE>88.5728</RA_OF_ASC_NODE><ARG_OF_PERICENTER>13.2111</ARG_OF_PERICENTER><MEAN_ANOMALY>346.8762</MEAN_ANOMALY></meanElements><tleParameters><EPHEMERIS_TYPE>0</EPHEMERIS_TYPE><CLASSIFICATION_TYPE>U</CLASSIFICATION_TYPE><NORAD_CAT_ID>25771</NORAD_CAT_ID><ELEMENT_SET_NO>999</ELEMENT_SET_NO><REV_AT_EPOCH>6958</REV_AT_EPOCH><BSTAR>-.22763E-2</BSTAR><MEAN_MOTION_DOT>-.131E-5</MEAN_MOTION_DOT><MEAN_MOTION_DDOT>0</MEAN_MOTION_DDOT></tleParameters></data></segment></body></omm>
<omm id="CCSDS_OMM_VERS" version="2.0">
<header><CREATION_DATE/><ORIGINATOR/></header><body><segment><metadata><OBJECT_NAME>GLOBALSTAR M047 [-]</OBJECT_NAME><OBJECT_ID>1999-031C</OBJECT_ID><CENTER_NAME>EARTH</CENTER_NAME><REF_FRAME>TEME</REF_FRAME><TIME_SYSTEM>UTC</TIME_SYSTEM><MEAN_ELEMENT_THEORY>SGP4</MEAN_ELEMENT_THEORY></metadata><data><meanElements><EPOCH>2024-04-13T10:37:48.231840</EPOCH><MEAN_MOTION>11.31919786</MEAN_MOTION><ECCENTRICITY>.0016521</ECCENTRICITY><INCLINATION>51.9800</INCLINATION><RA_OF_ASC_NODE>125.9904</RA_OF_ASC_NODE><ARG_OF_PERICENTER>244.6275</ARG_OF_PERICENTER><MEAN_ANOMALY>115.2820</MEAN_ANOMALY></meanElements><tleParameters><EPHEMERIS_TYPE>0</EPHEMERIS_TYPE><CLASSIFICATION_TYPE>U</CLASSIFICATION_TYPE><NORAD_CAT_ID>25772</NORAD_CAT_ID><ELEMENT_SET_NO>999</ELEMENT_SET_NO><REV_AT_EPOCH>42244</REV_AT_EPOCH><BSTAR>-.158E-4</BSTAR><MEAN_MOTION_DOT>-.7E-6</MEAN_MOTION_DOT><MEAN_MOTION_DDOT>0</MEAN_MOTION_DDOT></tleParameters></data></segment></body></omm>
<omm id="CCSDS_OMM_VERS" version="2.0">
<header><CREATION_DATE/><ORIGINATOR/></header><body><segment><metadata><OBJECT_NAME>GLOBALSTAR M052 [-]</OBJECT_NAME><OBJECT_ID>1999-031D</OBJECT_ID><CENTER_NAME>EARTH</CENTER_NAME><REF_FRAME>TEME</REF_FRAME><TIME_SYSTEM>UTC</TIME_SYSTEM><MEAN_ELEMENT_THEORY>SGP4</MEAN_ELEMENT_THEORY></metadata><data><meanElements><EPOCH>2024-04-13T13:42:56.382624</EPOCH><MEAN_MOTION>11.15050077</MEAN_MOTION><ECCENTRICITY>.0003149</ECCENTRICITY><INCLINATION>51.9853</INCLINATION><RA_OF_ASC_NODE>202.3908</RA_OF_ASC_NODE><ARG_OF_PERICENTER>175.6790</ARG_OF_PERICENTER><MEAN_ANOMALY>287.5738</MEAN_ANOMALY></meanElements><tleParameters><EPHEMERIS_TYPE>0</EPHEMERIS_TYPE><CLASSIFICATION_TYPE>U</CLASSIFICATION_TYPE><NORAD_CAT_ID>25773</NORAD_CAT_ID><ELEMENT_SET_NO>999</ELEMENT_SET_NO><REV_AT_EPOCH>43058</REV_AT_EPOCH><BSTAR>.12813E-2</BSTAR><MEAN_MOTION_DOT>-.28E-6</MEAN_MOTION_DOT><MEAN_MOTION_DDOT>0</MEAN_MOTION_DDOT></tleParameters></data></segment></body></omm>

</ndm>
