GLOBALSTAR M045 [-]     
1 25676U 99019A   24104.43442368 -.00000090  00000+0  28498-4 0  9993
2 25676  51.9958  90.1243 0000630  88.3149  78.2357 12.27034600140637
GLOBALSTAR M019 [-]     
1 25677U 99019B   24104.52632007 -.00000140  00000+0 -52351-3 0  9996
2 25677  51.9869 190.0032 0001524 161.4509 305.0482 12.13855031132962
GLOBALSTAR M044 [-]     
1 25678U 99019C   24104.40253233 -.00000084  00000+0 -11153-4 0  9997
2 25678  51.9955  87.9367 0006160 292.4065 235.4624 11.90230621120144
GLOBALSTAR M042 [-]     
1 25679U 99019D   24104.51171310 -.00000066  00000+0  24300-3 0  9991
2 25679  52.0001 183.9145 0003448 133.8844 332.4284 12.22059478132721
GLOBALSTAR M025 [-]     
1 25770U 99031A   24104.32727076 -.00000073  00000+0 -17167-3 0  9994
2 25770  51.9809  75.0619 0001354 144.3228   5.4066 11.22550070433431
GLOBALSTAR M049 [-]     
1 25771U 99031B   24104.17320199 -.00000131  00000+0 -22763-2 0  9995
2 25771  51.9856  88.5728 0002927  13.2111 346.8762 11.12104087 69584
GLOBALSTAR M047 [-]     
1 25772U 99031C   24104.44291935 -.00000070  00000+0 -15800-4 0  9999
2 25772  51.9800 125.9904 0016521 244.6275 115.2820 11.31919786422444
GLOBALSTAR M052 [-]     
1 25773U 99031D   24104.57148591 -.00000028  00000+0  12813-2 0  9994
2 25773  51.9853 202.3908 0003149 175.6790 287.5738 11.15050077430580
